{"generatedAt":"2026-03-31T07:25:26.472389Z","satellites":[{"name":"STARLINK-2031","tle1":"1 47648U 21012AE  26089.91683404  .00020483  00000+0  70103-3 0  9995","tle2":"2 47648  53.1579 310.9520 0000869 105.7534 254.3563 15.30234513283557"},{"name":"STARLINK-2032","tle1":"1 47649U 21012AF  26089.91667824  .00132204  00000+0  10882-2 0  9996","tle2":"2 47649  53.0388 269.3818 0006561 158.6248 162.2683 15.69473840  5941"},{"name":"STARLINK-2033","tle1":"1 47650U 21012AG  26089.87933224  .00073192  00000+0  22195-2 0  9993","tle2":"2 47650  53.1545 310.8270 0001517 206.4606 153.6319 15.33485685283533"},{"name":"STARLINK-2036","tle1":"1 47652U 21012AJ  26089.92322994  .00046374  00000+0  93762-3 0  9998","tle2":"2 47652  53.1608 323.7557 0002214 194.4640 165.6304 15.46030012283367"},{"name":"STARLINK-2039","tle1":"1 47655U 21012AM  26089.90536059  .00005574  00000+0  20014-3 0  9995","tle2":"2 47655  53.1608 326.5181 0001176  95.4631 264.6504 15.30205113283338"},{"name":"STARLINK-2040","tle1":"1 47656U 21012AN  26089.91366942  .00007442  00000+0  26305-3 0  9994","tle2":"2 47656  53.1593 310.9727 0001420  92.7383 267.3780 15.30212952283549"},{"name":"STARLINK-2041","tle1":"1 47657U 21012AP  26089.91667824  .00954896  00000+0  14839-1 0  9999","tle2":"2 47657  53.1590 323.6350 0001180  86.7337 214.2076 15.50932381  5802"},{"name":"STARLINK-2058","tle1":"1 47667U 21012AZ  26089.91667824  .00551061  13561-3  13773-2 0  9994","tle2":"2 47667  53.0324 276.2266 0003153 249.4099 279.5022 15.95206956  6000"},{"name":"STARLINK-2065","tle1":"1 47672U 21012BE  26089.91667824  .00194375  00000+0  13007-2 0  9991","tle2":"2 47672  53.1488 264.0689 0002597  94.6408 131.9297 15.74193459  5922"},{"name":"STARLINK-2083","tle1":"1 47676U 21012BJ  26089.91667824 -.00009163  00000+0 -87388-4 0  9992","tle2":"2 47676  53.0480 178.5655 0001229  41.9687 127.1752 15.64657323  5921"},{"name":"STARLINK-2095","tle1":"1 47679U 21012BM  26089.91667824  .00538552  00000+0  20279-2 0  9996","tle2":"2 47679  53.0190 240.7991 0008026 294.5223 158.9724 15.85844613  5970"},{"name":"STARLINK-2068","tle1":"1 47722U 21017A   26089.70287183  .00001861  00000+0  74958-4 0  9996","tle2":"2 47722  53.1599  93.4183 0001371 103.9210 256.1943 15.30195328281291"},{"name":"STARLINK-2107","tle1":"1 47723U 21017B   26089.54097636  .00010156  00000+0  35454-3 0  9995","tle2":"2 47723  53.1614  29.8398 0001245  92.0575 268.0568 15.30202034282135"},{"name":"STARLINK-2116","tle1":"1 47724U 21017C   26089.91667824  .00647505  19742-3  12801-2 0  9990","tle2":"2 47724  53.0345 336.1117 0004660 261.5853  87.9812 15.99427058  6005"},{"name":"STARLINK-2131","tle1":"1 47728U 21017G   26089.91667824  .01684399  00000+0  49488-1 0  9990","tle2":"2 47728  53.0730 105.0293 0001240  67.6088 151.0087 15.31429032  5333"},{"name":"STARLINK-2140","tle1":"1 47730U 21017J   26089.79144590  .00153756  00000+0  51627-2 0  9995","tle2":"2 47730  53.1549 118.9462 0001060  95.0548 265.0573 15.29784753280884"},{"name":"STARLINK-2141","tle1":"1 47731U 21017K   26089.76935615  .00118215  00000+0  19239-2 0  9993","tle2":"2 47731  53.1596 103.0164 0004110  60.9293 299.2129 15.51795716281128"},{"name":"STARLINK-2143","tle1":"1 47733U 21017M   26089.78617233  .00012320  00000+0  42748-3 0  9992","tle2":"2 47733  53.1598 118.7360 0001251  92.0000 268.1144 15.30192627280948"},{"name":"STARLINK-2144","tle1":"1 47734U 21017N   26089.32630243  .00002523  00000+0  97310-4 0  9999","tle2":"2 47734  53.1585 108.0324 0001357  84.4410 275.6746 15.30191947281029"},{"name":"STARLINK-2147","tle1":"1 47736U 21017Q   26089.91667824  .01078710  00000+0  33705-1 0  9998","tle2":"2 47736  53.0778 105.0969 0001336  86.6237  77.9792 15.29809940  5782"},{"name":"STARLINK-2150","tle1":"1 47739U 21017T   26089.78149117  .00004796  00000+0  17398-3 0  9990","tle2":"2 47739  53.1582 121.2613 0001384  96.9196 263.1963 15.30196558280911"},{"name":"STARLINK-2156","tle1":"1 47742U 21017W   26089.71936629  .00001806  00000+0  73106-4 0  9998","tle2":"2 47742  53.1588  96.4987 0001149 108.9671 251.1454 15.30194578281259"},{"name":"STARLINK-2159","tle1":"1 47745U 21017Z   26089.74279410  .00156837  00000+0  30078-2 0  9996","tle2":"2 47745  53.1602 104.1307 0003208  72.3889 287.7470 15.46959542281097"},{"name":"STARLINK-2160","tle1":"1 47746U 21017AA  26089.74984666  .00002821  00000+0  10734-3 0  9994","tle2":"2 47746  53.1594 106.4161 0001100  97.0283 263.0843 15.30195083281054"},{"name":"STARLINK-2161","tle1":"1 47747U 21017AB  26089.71300017  .00001438  00000+0  60663-4 0  9994","tle2":"2 47747  53.1594  96.2471 0001266 104.1792 255.9349 15.30194811281232"},{"name":"STARLINK-2162","tle1":"1 47748U 21017AC  26089.29072720  .00106706  00000+0  16504-2 0  9992","tle2":"2 47748  53.1593  94.4336 0002331  78.4272 281.7000 15.53267715281197"},{"name":"STARLINK-2163","tle1":"1 47749U 21017AD  26089.71824343  .00121677  00000+0  22715-2 0  9991","tle2":"2 47749  53.1579  95.4433 0001825 101.3285 258.7929 15.47892799281214"},{"name":"STARLINK-2164","tle1":"1 47750U 21017AE  26089.72558135  .00010321  00000+0  36015-3 0  9999","tle2":"2 47750  53.1594  95.8093 0001272  93.3994 266.7153 15.30196673281210"},{"name":"STARLINK-2169","tle1":"1 47752U 21017AG  26089.91667824  .00103640  00000+0  21564-2 0  9997","tle2":"2 47752  53.1573 104.4684 0001252  93.0274 238.0345 15.44825336  5734"},{"name":"STARLINK-2170","tle1":"1 47753U 21017AH  26089.73715193  .00003630  00000+0  13464-3 0  9990","tle2":"2 47753  53.1588 106.1368 0001285 102.3337 257.7807 15.30195348281116"},{"name":"STARLINK-2171","tle1":"1 47754U 21017AJ  26089.91667824  .00151895  00000+0  94210-3 0  9993","tle2":"2 47754  53.0423  63.0939 0001682 169.0111 270.6191 15.76076360  5868"},{"name":"STARLINK-2178","tle1":"1 47760U 21017AQ  26089.80934793  .00012603  00000+0  43694-3 0  9993","tle2":"2 47760  53.1606 118.6421 0001406  85.6850 274.4312 15.30198900280923"},{"name":"STARLINK-2180","tle1":"1 47762U 21017AS  26089.78355782  .00133292  00000+0  19115-2 0  9995","tle2":"2 47762  53.1606 118.1162 0001493  63.2982 296.8182 15.55226166280922"},{"name":"STARLINK-2185","tle1":"1 47767U 21017AX  26089.73523926  .00083335  00000+0  18454-2 0  9999","tle2":"2 47767  53.1598 106.0112 0001833  80.8062 279.3152 15.43089032281111"},{"name":"STARLINK-2193","tle1":"1 47770U 21017BA  26089.76768414  .00011286  00000+0  39277-3 0  9992","tle2":"2 47770  53.1593 105.9287 0001068  93.3603 266.7520 15.30186397281095"},{"name":"STARLINK-2194","tle1":"1 47771U 21017BB  26089.77927476  .00006488  00000+0  23100-3 0  9995","tle2":"2 47771  53.1600 105.8829 0001388  87.2814 272.8345 15.30199267281102"},{"name":"STARLINK-2195","tle1":"1 47772U 21017BC  26089.48180474  .00001849  00000+0  74567-4 0  9993","tle2":"2 47772  53.1609 120.6993 0001574 101.3234 258.7944 15.30190231280840"},{"name":"STARLINK-2196","tle1":"1 47773U 21017BD  26089.48803830  .00003947  00000+0  14533-3 0  9999","tle2":"2 47773  53.1595 120.1153 0001151  71.0549 289.0576 15.30198557280848"},{"name":"STARLINK-2209","tle1":"1 47776U 21017BG  26089.32543293  .00083685  00000+0  16647-2 0  9993","tle2":"2 47776  53.1588 105.4320 0002850  63.7732 296.3569 15.46242746281069"},{"name":"STARLINK-2211","tle1":"1 47778U 21017BJ  26089.73675589  .00083503  00000+0  20399-2 0  9992","tle2":"2 47778  53.1608 105.3998 0003300  65.3234 294.8114 15.40132050281092"},{"name":"STARLINK-2213","tle1":"1 47780U 21017BL  26089.75293653  .00006016  00000+0  21501-3 0  9996","tle2":"2 47780  53.1589 106.0010 0001931  88.3422 271.7800 15.30210026281127"},{"name":"STARLINK-2257","tle1":"1 47787U 21018A   26089.88803337  .00000502  00000+0  29100-4 0  9992","tle2":"2 47787  53.1618 146.8733 0001624  93.8784 266.2403 15.30192167279931"},{"name":"STARLINK-2314","tle1":"1 47788U 21018B   26089.89471805  .00070528  00000+0  22440-2 0  9998","tle2":"2 47788  53.1584 121.1349 0002438  55.8516 304.2716 15.31970726280318"},{"name":"STARLINK-2315","tle1":"1 47789U 21018C   26089.85993632  .00003501  00000+0  25378-3 0  9993","tle2":"2 47789  53.0541 136.5821 0001169  92.7410 267.3713 15.06404583280073"},{"name":"STARLINK-2319","tle1":"1 47790U 21018D   26089.79880818  .00000322  00000+0  22990-4 0  9995","tle2":"2 47790  53.1604 118.6573 0001017  92.7348 267.3770 15.30191567280337"},{"name":"STARLINK-2322","tle1":"1 47791U 21018E   26089.57247355  .00003303  00000+0  12365-3 0  9991","tle2":"2 47791  53.1579 145.9450 0001337  90.2735 269.8419 15.30185922279933"},{"name":"STARLINK-2334","tle1":"1 47792U 21018F   26089.53557176  .00001704  00000+0  13324-3 0  9992","tle2":"2 47792  53.0535 138.0387 0001122  86.3115 273.8002 15.06398654280023"},{"name":"STARLINK-2338","tle1":"1 47793U 21018G   26089.35127789  .00001381  00000+0  11160-3 0  9993","tle2":"2 47793  53.0537 138.8656 0001380  87.6903 272.4244 15.06393250279981"},{"name":"STARLINK-2373","tle1":"1 47796U 21018K   26089.82307521  .00001257  00000+0  10327-3 0  9998","tle2":"2 47796  53.0549 136.7478 0001452  89.5192 270.5964 15.06397405280062"},{"name":"STARLINK-2377","tle1":"1 47797U 21018L   26089.90700884  .00000357  00000+0  24713-4 0  9992","tle2":"2 47797  53.1583 156.6125 0001995  86.3918 273.7310 15.29356977279797"},{"name":"STARLINK-2379","tle1":"1 47798U 21018M   26089.83414014  .00000221  00000+0  33762-4 0  9996","tle2":"2 47798  53.0559 136.6993 0001354  93.6952 266.4192 15.06396150280060"},{"name":"STARLINK-2380","tle1":"1 47799U 21018N   26089.81578085  .00001544  00000+0  64285-4 0  9997","tle2":"2 47799  53.1606 134.0266 0001662 103.0469 257.0717 15.30185926280097"},{"name":"STARLINK-2381","tle1":"1 47800U 21018P   26089.85256121  .00000781  00000+0  71311-4 0  9998","tle2":"2 47800  53.0542 136.6154 0001015  77.5043 282.6060 15.06394567280065"},{"name":"STARLINK-2383","tle1":"1 47802U 21018R   26089.46547509  .00013785  00000+0  48868-3 0  9998","tle2":"2 47802  53.1581 158.7490 0001478  81.3749 278.7419 15.29386844279738"}]}